STARLINK-35963          
1 66585U 25268AE  25335.25002315 -.01823976  00000+0 -10162-1 0  9997
2 66585  42.9968 189.4180 0001698 261.2645   5.4210 15.81376984  2827
TJS-21                  
1 66586U 25269A   25326.02704417  .00003197  00000+0  53570-3 0  9990
2 66586  51.0366 174.7096 7517987 225.0489  41.6572  2.00992210    24
CZ-3B R/B               
1 66587U 25269B   25327.51390516  .00010320 -91384-6  49597-3 0  9990
2 66587  51.3768 174.0599 7525341 225.2938  41.2116  2.01516013    67
SHENZHOU-22             
1 66645U 25272A   25335.24649191  .00020611  00000+0  26566-3 0  9996
2 66645  41.4669  86.4444 0010456 305.4954  54.4908 15.58463389262243
CZ-2F R/B               
1 66646U 25272B   25330.47076975  .00449059  75676-5  29319-3 0  9998
2 66646  41.4431 114.9009 0121079 133.7676 227.3272 16.01945612   217
COSMOS 2597 (RODNIK-S *)
1 66647U 25273A   25335.27618185 -.00000002  00000+0 -88453-4 0  9999
2 66647  82.4980 293.5686 0008186 315.9624  44.0802 12.41951032   718
COSMOS 2598 (RODNIK-S *)
1 66648U 25273B   25335.27481154 -.00000039  00000+0 -35307-3 0  9993
2 66648  82.5021 293.5753 0008275 304.6351  55.3948 12.42253025   716
COSMOS 2599 (RODNIK-S *)
1 66649U 25273C   25335.27744905 -.00000007  00000+0 -12163-3 0  9990
2 66649  82.5021 293.5774 0008431 326.1670  33.8871 12.41671789   713
2025-274A               
1 66650U 25274A   25335.14721006  .00002330  00000+0  23760-3 0  9990
2 66650  97.7375 262.5495 0010540 295.7358  64.2772 14.91594466   675
2025-274B               
1 66651U 25274B   25335.21412713  .00004565  00000+0  45928-3 0  9993
2 66651  97.7369 262.6151 0010860 295.0407  64.9684 14.91656835   681
2025-274C               
1 66652U 25274C   25334.74414821  .00002921  00000+0  29489-3 0  9991
2 66652  97.7373 262.1550 0010671 303.5435  56.4764 14.91802271   616
2025-274D               
1 66653U 25274D   25335.21363666  .00001574  00000+0  16146-3 0  9994
2 66653  97.7378 262.6172 0011487 297.5560  62.4492 14.91812422   685
