CCSDS_OMM_VERS = 2.0
CREATION_DATE  = 
ORIGINATOR     = 

OBJECT_NAME    = STARLINK-35963
OBJECT_ID      = 2025-268AE
CENTER_NAME    = EARTH
REF_FRAME      = TEME
TIME_SYSTEM    = UTC
MEAN_ELEMENT_THEORY = SGP/SGP4

EPOCH          = 2025-12-01T06:00:02.000160
MEAN_MOTION    = 15.81376984
ECCENTRICITY   = .00016989
INCLINATION    = 42.9968
RA_OF_ASC_NODE = 189.4180
ARG_OF_PERICENTER = 261.2645
MEAN_ANOMALY   = 5.4210

EPHEMERIS_TYPE = 0
CLASSIFICATION_TYPE = U
NORAD_CAT_ID   = 66585
ELEMENT_SET_NO = 999
REV_AT_EPOCH   = 282
BSTAR          = -.10161758E-1
MEAN_MOTION_DOT = -.1823976E-1
MEAN_MOTION_DDOT = 0

CCSDS_OMM_VERS = 2.0
CREATION_DATE  = 
ORIGINATOR     = 

OBJECT_NAME    = TJS-21
OBJECT_ID      = 2025-269A
CENTER_NAME    = EARTH
REF_FRAME      = TEME
TIME_SYSTEM    = UTC
MEAN_ELEMENT_THEORY = SGP/SGP4

EPOCH          = 2025-11-22T00:38:56.616288
MEAN_MOTION    = 2.00992210
ECCENTRICITY   = .75179873
INCLINATION    = 51.0366
RA_OF_ASC_NODE = 174.7096
ARG_OF_PERICENTER = 225.0489
MEAN_ANOMALY   = 41.6572

EPHEMERIS_TYPE = 0
CLASSIFICATION_TYPE = U
NORAD_CAT_ID   = 66586
ELEMENT_SET_NO = 999
REV_AT_EPOCH   = 2
BSTAR          = .53569978E-3
MEAN_MOTION_DOT = .3197E-4
MEAN_MOTION_DDOT = 0

CCSDS_OMM_VERS = 2.0
CREATION_DATE  = 
ORIGINATOR     = 

OBJECT_NAME    = CZ-3B R/B
OBJECT_ID      = 2025-269B
CENTER_NAME    = EARTH
REF_FRAME      = TEME
TIME_SYSTEM    = UTC
MEAN_ELEMENT_THEORY = SGP/SGP4

EPOCH          = 2025-11-23T12:20:01.405824
MEAN_MOTION    = 2.01516013
ECCENTRICITY   = .75253415
INCLINATION    = 51.3768
RA_OF_ASC_NODE = 174.0599
ARG_OF_PERICENTER = 225.2938
MEAN_ANOMALY   = 41.2116

EPHEMERIS_TYPE = 0
CLASSIFICATION_TYPE = U
NORAD_CAT_ID   = 66587
ELEMENT_SET_NO = 999
REV_AT_EPOCH   = 6
BSTAR          = .49596604E-3
MEAN_MOTION_DOT = .1032E-3
MEAN_MOTION_DDOT = -.913844E-6

CCSDS_OMM_VERS = 2.0
CREATION_DATE  = 
ORIGINATOR     = 

OBJECT_NAME    = SHENZHOU-22
OBJECT_ID      = 2025-272A
CENTER_NAME    = EARTH
REF_FRAME      = TEME
TIME_SYSTEM    = UTC
MEAN_ELEMENT_THEORY = SGP/SGP4

EPOCH          = 2025-12-01T05:54:56.901024
MEAN_MOTION    = 15.58463389
ECCENTRICITY   = .00104562
INCLINATION    = 41.4669
RA_OF_ASC_NODE = 86.4444
ARG_OF_PERICENTER = 305.4954
MEAN_ANOMALY   = 54.4908

EPHEMERIS_TYPE = 0
CLASSIFICATION_TYPE = U
NORAD_CAT_ID   = 66645
ELEMENT_SET_NO = 999
REV_AT_EPOCH   = 26224
BSTAR          = .26566419E-3
MEAN_MOTION_DOT = .20611E-3
MEAN_MOTION_DDOT = 0

CCSDS_OMM_VERS = 2.0
CREATION_DATE  = 
ORIGINATOR     = 

OBJECT_NAME    = CZ-2F R/B
OBJECT_ID      = 2025-272B
CENTER_NAME    = EARTH
REF_FRAME      = TEME
TIME_SYSTEM    = UTC
MEAN_ELEMENT_THEORY = SGP/SGP4

EPOCH          = 2025-11-26T11:17:54.506400
MEAN_MOTION    = 16.01945612
ECCENTRICITY   = .01210796
INCLINATION    = 41.4431
RA_OF_ASC_NODE = 114.9009
ARG_OF_PERICENTER = 133.7676
MEAN_ANOMALY   = 227.3272

EPHEMERIS_TYPE = 0
CLASSIFICATION_TYPE = U
NORAD_CAT_ID   = 66646
ELEMENT_SET_NO = 999
REV_AT_EPOCH   = 21
BSTAR          = .29319366E-3
MEAN_MOTION_DOT = .449059E-2
MEAN_MOTION_DDOT = .7567612E-5

CCSDS_OMM_VERS = 2.0
CREATION_DATE  = 
ORIGINATOR     = 

OBJECT_NAME    = COSMOS 2597 (RODNIK-S 22)
OBJECT_ID      = 2025-273A
CENTER_NAME    = EARTH
REF_FRAME      = TEME
TIME_SYSTEM    = UTC
MEAN_ELEMENT_THEORY = SGP/SGP4

EPOCH          = 2025-12-01T06:37:42.111840
MEAN_MOTION    = 12.41951032
ECCENTRICITY   = .00081868
INCLINATION    = 82.4980
RA_OF_ASC_NODE = 293.5686
ARG_OF_PERICENTER = 315.9624
MEAN_ANOMALY   = 44.0802

EPHEMERIS_TYPE = 0
CLASSIFICATION_TYPE = U
NORAD_CAT_ID   = 66647
ELEMENT_SET_NO = 999
REV_AT_EPOCH   = 71
BSTAR          = -.88453268E-4
MEAN_MOTION_DOT = -.2E-7
MEAN_MOTION_DDOT = 0

CCSDS_OMM_VERS = 2.0
CREATION_DATE  = 
ORIGINATOR     = 

OBJECT_NAME    = COSMOS 2598 (RODNIK-S 23)
OBJECT_ID      = 2025-273B
CENTER_NAME    = EARTH
REF_FRAME      = TEME
TIME_SYSTEM    = UTC
MEAN_ELEMENT_THEORY = SGP/SGP4

EPOCH          = 2025-12-01T06:35:43.717056
MEAN_MOTION    = 12.42253025
ECCENTRICITY   = .00082751
INCLINATION    = 82.5021
RA_OF_ASC_NODE = 293.5753
ARG_OF_PERICENTER = 304.6351
MEAN_ANOMALY   = 55.3948

EPHEMERIS_TYPE = 0
CLASSIFICATION_TYPE = U
NORAD_CAT_ID   = 66648
ELEMENT_SET_NO = 999
REV_AT_EPOCH   = 71
BSTAR          = -.35306589E-3
MEAN_MOTION_DOT = -.39E-6
MEAN_MOTION_DDOT = 0

CCSDS_OMM_VERS = 2.0
CREATION_DATE  = 
ORIGINATOR     = 

OBJECT_NAME    = COSMOS 2599 (RODNIK-S 24)
OBJECT_ID      = 2025-273C
CENTER_NAME    = EARTH
REF_FRAME      = TEME
TIME_SYSTEM    = UTC
MEAN_ELEMENT_THEORY = SGP/SGP4

EPOCH          = 2025-12-01T06:39:31.597920
MEAN_MOTION    = 12.41671789
ECCENTRICITY   = .00084318
INCLINATION    = 82.5021
RA_OF_ASC_NODE = 293.5774
ARG_OF_PERICENTER = 326.1670
MEAN_ANOMALY   = 33.8871

EPHEMERIS_TYPE = 0
CLASSIFICATION_TYPE = U
NORAD_CAT_ID   = 66649
ELEMENT_SET_NO = 999
REV_AT_EPOCH   = 71
BSTAR          = -.12162701E-3
MEAN_MOTION_DOT = -.7E-7
MEAN_MOTION_DDOT = 0

CCSDS_OMM_VERS = 2.0
CREATION_DATE  = 
ORIGINATOR     = 

OBJECT_NAME    = 2025-274A
OBJECT_ID      = 2025-274A
CENTER_NAME    = EARTH
REF_FRAME      = TEME
TIME_SYSTEM    = UTC
MEAN_ELEMENT_THEORY = SGP/SGP4

EPOCH          = 2025-12-01T03:31:58.949184
MEAN_MOTION    = 14.91594466
ECCENTRICITY   = .00105404
INCLINATION    = 97.7375
RA_OF_ASC_NODE = 262.5495
ARG_OF_PERICENTER = 295.7358
MEAN_ANOMALY   = 64.2772

EPHEMERIS_TYPE = 0
CLASSIFICATION_TYPE = U
NORAD_CAT_ID   = 66650
ELEMENT_SET_NO = 999
REV_AT_EPOCH   = 67
BSTAR          = .23759538E-3
MEAN_MOTION_DOT = .233E-4
MEAN_MOTION_DDOT = 0

CCSDS_OMM_VERS = 2.0
CREATION_DATE  = 
ORIGINATOR     = 

OBJECT_NAME    = 2025-274B
OBJECT_ID      = 2025-274B
CENTER_NAME    = EARTH
REF_FRAME      = TEME
TIME_SYSTEM    = UTC
MEAN_ELEMENT_THEORY = SGP/SGP4

EPOCH          = 2025-12-01T05:08:20.584032
MEAN_MOTION    = 14.91656835
ECCENTRICITY   = .00108608
INCLINATION    = 97.7369
RA_OF_ASC_NODE = 262.6151
ARG_OF_PERICENTER = 295.0407
MEAN_ANOMALY   = 64.9684

EPHEMERIS_TYPE = 0
CLASSIFICATION_TYPE = U
NORAD_CAT_ID   = 66651
ELEMENT_SET_NO = 999
REV_AT_EPOCH   = 68
BSTAR          = .45927688E-3
MEAN_MOTION_DOT = .4565E-4
MEAN_MOTION_DDOT = 0

CCSDS_OMM_VERS = 2.0
CREATION_DATE  = 
ORIGINATOR     = 

OBJECT_NAME    = 2025-274C
OBJECT_ID      = 2025-274C
CENTER_NAME    = EARTH
REF_FRAME      = TEME
TIME_SYSTEM    = UTC
MEAN_ELEMENT_THEORY = SGP/SGP4

EPOCH          = 2025-11-30T17:51:34.405344
MEAN_MOTION    = 14.91802271
ECCENTRICITY   = .00106713
INCLINATION    = 97.7373
RA_OF_ASC_NODE = 262.1550
ARG_OF_PERICENTER = 303.5435
MEAN_ANOMALY   = 56.4764

EPHEMERIS_TYPE = 0
CLASSIFICATION_TYPE = U
NORAD_CAT_ID   = 66652
ELEMENT_SET_NO = 999
REV_AT_EPOCH   = 61
BSTAR          = .29489252E-3
MEAN_MOTION_DOT = .2921E-4
MEAN_MOTION_DDOT = 0

CCSDS_OMM_VERS = 2.0
CREATION_DATE  = 
ORIGINATOR     = 

OBJECT_NAME    = 2025-274D
OBJECT_ID      = 2025-274D
CENTER_NAME    = EARTH
REF_FRAME      = TEME
TIME_SYSTEM    = UTC
MEAN_ELEMENT_THEORY = SGP/SGP4

EPOCH          = 2025-12-01T05:07:38.207424
MEAN_MOTION    = 14.91812422
ECCENTRICITY   = .00114874
INCLINATION    = 97.7378
RA_OF_ASC_NODE = 262.6172
ARG_OF_PERICENTER = 297.5560
MEAN_ANOMALY   = 62.4492

EPHEMERIS_TYPE = 0
CLASSIFICATION_TYPE = U
NORAD_CAT_ID   = 66653
ELEMENT_SET_NO = 999
REV_AT_EPOCH   = 68
BSTAR          = .16145907E-3
MEAN_MOTION_DOT = .1574E-4
MEAN_MOTION_DDOT = 0

